[Satellite]
VERSION=1.1
NAME=EYESAT-1 (AO-27)
NICKNAME=AO-27
TLE1=1 22825U 93061C   19310.97205818 -.00000002  00000-0  17282-4 0  9999
TLE2=2 22825  98.9149 302.9116 0007639 312.8267  47.2272 14.30070322362149
STATUS=0
